METHANESAT              
1 59101U 24043D   25197.89209857  .00002402  00000+0  22200-3 0  9997
2 59101  97.8036 323.8202 0011974  55.6424 304.5927 14.95488788 74495
GOSAT-GW (IBUKI GW)     
1 64694U 25141A   25198.08002958  .00000563  00000+0  11002-3 0  9999
2 64694  98.0258 136.4604 0006007  94.0561 266.1330 14.66577316  2699
GHGSAT-C1               
1 46278U 20061G   25198.15488676  .00011662  00000+0  19899-3 0  9990
2 46278  97.2493 272.0710 0002364 159.2365 200.8984 15.51487935271232
GHGSAT-C2               
1 47509U 21006DA  25197.68785056  .00004136  00000+0  13359-3 0  9990
2 47509  97.2659 245.8034 0004180 301.5902  58.4932 15.32656428248371
GHGSAT-C3               
1 52737U 22057F   25198.20814032  .00008956  00000+0  32396-3 0  9998
2 52737  97.6165 328.7502 0005912 215.7092 144.3752 15.28657576174268
GHGSAT-C4               
1 52746U 22057Q   25198.16090184  .00005989  00000+0  21757-3 0  9999
2 52746  97.6094 327.8652 0006478 200.8647 159.2329 15.28666322174268
GHGSAT-C5               
1 52744U 22057N   25198.17711869  .00005176  00000+0  18850-3 0  9996
2 52744  97.6251 329.9043 0006988 213.4598 146.6200 15.28651887174267
GHGSAT-C6               
1 56204U 23054AC  25198.16550691  .00008574  00000+0  20131-3 0  9992
2 56204  97.3280  99.3769 0009481 168.1812 191.9660 15.42234287126649
GHGSAT-C7               
1 56209U 23054AH  25198.17329950  .00006805  00000+0  16435-3 0  9997
2 56209  97.3242  98.9476 0009659 162.0983 198.0606 15.41464189126644
GHGSAT-C8               
1 56186U 23054J   25198.20535362  .00008634  00000+0  20271-3 0  9996
2 56186  97.3250  98.9049 0006124 181.9896 178.1328 15.42260946126635
SENTINEL-5P             
1 42969U 17064A   25197.83119559  .00000033  00000+0  36690-4 0  9996
2 42969  98.7585 137.9143 0001317  89.7117 270.4210 14.19532491401984
ENMAP                   
1 52159U 22033C   25197.90399945  .00000337  00000+0  57615-4 0  9994
2 52159  97.9786 279.9701 0001411  86.5503 273.5867 14.74959404177234
PRISMA                  
1 44072U 19015A   25198.22460443  .00000625  00000+0  82036-4 0  9998
2 44072  97.8745 272.7924 0001512  90.5928 269.5460 14.83675554342384
SENTINEL-2A             
1 40697U 15028A   25198.17976646  .00000086  00000+0  49401-4 0  9998
2 40697  98.5685 272.8376 0001192  93.5299 266.6021 14.30817629525820
SENTINEL-2B             
1 42063U 17013A   25198.17258378  .00000092  00000+0  51738-4 0  9991
2 42063  98.5688 272.7723 0001228 100.0211 260.1111 14.30819530436749
SENTINEL-2C             
1 60989U 24157A   25197.78820340  .00000066  00000+0  41645-4 0  9992
2 60989  98.5677 272.4685 0001191  97.6146 262.5172 14.30817989 45021
LANDSAT 8               
1 39084U 13008A   25198.19256168  .00000254  00000+0  66565-4 0  9991
2 39084  98.2243 268.3014 0001349  88.6833 271.4520 14.57103151660934
LANDSAT 9               
1 49260U 21088A   25198.15820246  .00000271  00000+0  70323-4 0  9991
2 49260  98.2263 268.2659 0001488  87.8440 272.2928 14.57100274202202
TANAGER-1               
1 60507U 24149AR  25197.79987848  .00009483  00000+0  21155-3 0  9992
2 60507  97.4003 282.4852 0010445 245.0913 114.9250 15.43730646 51290
